[{"OBJECT_NAME":"KUIPER-00203","OBJECT_ID":"2026-030K","EPOCH":"2026-03-03T18:00:01.999296","MEAN_MOTION":15.25804315,"ECCENTRICITY":0.0011295,"INCLINATION":51.8808,"RA_OF_ASC_NODE":248.1219,"ARG_OF_PERICENTER":44.0684,"MEAN_ANOMALY":1.8595,"EPHEMERIS_TYPE":0,"CLASSIFICATION_TYPE":"U","NORAD_CAT_ID":67773,"ELEMENT_SET_NO":999,"REV_AT_EPOCH":274,"BSTAR":-0.080559,"MEAN_MOTION_DOT":-0.01874134,"MEAN_MOTION_DDOT":0},{"OBJECT_NAME":"KUIPER-00205","OBJECT_ID":"2026-030L","EPOCH":"2026-03-03T18:25:31.942848","MEAN_MOTION":15.36092095,"ECCENTRICITY":0.0002535,"INCLINATION":51.8807,"RA_OF_ASC_NODE":247.6289,"ARG_OF_PERICENTER":4.5714,"MEAN_ANOMALY":355.5295,"EPHEMERIS_TYPE":0,"CLASSIFICATION_TYPE":"U","NORAD_CAT_ID":67774,"ELEMENT_SET_NO":999,"REV_AT_EPOCH":418,"BSTAR":0.00088316,"MEAN_MOTION_DOT":0.00031275,"MEAN_MOTION_DDOT":0},{"OBJECT_NAME":"KUIPER-00208","OBJECT_ID":"2026-030M","EPOCH":"2026-03-03T17:42:03.022272","MEAN_MOTION":15.32756982,"ECCENTRICITY":0.0014446,"INCLINATION":51.8822,"RA_OF_ASC_NODE":248.1734,"ARG_OF_PERICENTER":44.3183,"MEAN_ANOMALY":315.8956,"EPHEMERIS_TYPE":0,"CLASSIFICATION_TYPE":"U","NORAD_CAT_ID":67775,"ELEMENT_SET_NO":999,"REV_AT_EPOCH":417,"BSTAR":-7.5687e-5,"MEAN_MOTION_DOT":-2.818e-5,"MEAN_MOTION_DDOT":0},{"OBJECT_NAME":"KUIPER-00209","OBJECT_ID":"2026-030N","EPOCH":"2026-03-03T17:47:12.996960","MEAN_MOTION":15.31307195,"ECCENTRICITY":0.0013141,"INCLINATION":51.8814,"RA_OF_ASC_NODE":248.1939,"ARG_OF_PERICENTER":49.225,"MEAN_ANOMALY":310.9872,"EPHEMERIS_TYPE":0,"CLASSIFICATION_TYPE":"U","NORAD_CAT_ID":67776,"ELEMENT_SET_NO":999,"REV_AT_EPOCH":417,"BSTAR":-0.00044195,"MEAN_MOTION_DOT":-0.00013945,"MEAN_MOTION_DDOT":0},{"OBJECT_NAME":"KUIPER-00213","OBJECT_ID":"2026-030P","EPOCH":"2026-03-03T16:09:04.590720","MEAN_MOTION":15.32480694,"ECCENTRICITY":0.0014923,"INCLINATION":51.8794,"RA_OF_ASC_NODE":248.4825,"ARG_OF_PERICENTER":46.9159,"MEAN_ANOMALY":313.3072,"EPHEMERIS_TYPE":0,"CLASSIFICATION_TYPE":"U","NORAD_CAT_ID":67777,"ELEMENT_SET_NO":999,"REV_AT_EPOCH":416,"BSTAR":0.0010237,"MEAN_MOTION_DOT":0.00032459,"MEAN_MOTION_DDOT":0},{"OBJECT_NAME":"KUIPER-00214","OBJECT_ID":"2026-030Q","EPOCH":"2026-03-03T18:16:55.815168","MEAN_MOTION":15.36518839,"ECCENTRICITY":8.78e-5,"INCLINATION":51.8841,"RA_OF_ASC_NODE":247.5969,"ARG_OF_PERICENTER":203.9464,"MEAN_ANOMALY":156.1482,"EPHEMERIS_TYPE":0,"CLASSIFICATION_TYPE":"U","NORAD_CAT_ID":67778,"ELEMENT_SET_NO":999,"REV_AT_EPOCH":418,"BSTAR":0.001122,"MEAN_MOTION_DOT":0.0004044,"MEAN_MOTION_DDOT":0},{"OBJECT_NAME":"KUIPER-00215","OBJECT_ID":"2026-030R","EPOCH":"2026-03-03T17:23:45.540096","MEAN_MOTION":15.34170139,"ECCENTRICITY":0.0009895,"INCLINATION":51.8829,"RA_OF_ASC_NODE":248.0923,"ARG_OF_PERICENTER":43.4112,"MEAN_ANOMALY":316.7651,"EPHEMERIS_TYPE":0,"CLASSIFICATION_TYPE":"U","NORAD_CAT_ID":67779,"ELEMENT_SET_NO":999,"REV_AT_EPOCH":417,"BSTAR":0.00081372,"MEAN_MOTION_DOT":0.00027076,"MEAN_MOTION_DDOT":0},{"OBJECT_NAME":"KUIPER-00218","OBJECT_ID":"2026-030S","EPOCH":"2026-03-03T17:11:07.030176","MEAN_MOTION":15.34896928,"ECCENTRICITY":0.0006455,"INCLINATION":51.8831,"RA_OF_ASC_NODE":248.0345,"ARG_OF_PERICENTER":34.3591,"MEAN_ANOMALY":325.7811,"EPHEMERIS_TYPE":0,"CLASSIFICATION_TYPE":"U","NORAD_CAT_ID":67780,"ELEMENT_SET_NO":999,"REV_AT_EPOCH":417,"BSTAR":0.0011818,"MEAN_MOTION_DOT":0.00040465,"MEAN_MOTION_DDOT":0},{"OBJECT_NAME":"KUIPER-00220","OBJECT_ID":"2026-030T","EPOCH":"2026-03-03T17:19:14.448000","MEAN_MOTION":15.34474365,"ECCENTRICITY":0.0008237,"INCLINATION":51.8802,"RA_OF_ASC_NODE":248.0653,"ARG_OF_PERICENTER":39.3791,"MEAN_ANOMALY":320.7792,"EPHEMERIS_TYPE":0,"CLASSIFICATION_TYPE":"U","NORAD_CAT_ID":67781,"ELEMENT_SET_NO":999,"REV_AT_EPOCH":417,"BSTAR":0.0011665,"MEAN_MOTION_DOT":0.00039409,"MEAN_MOTION_DDOT":0},{"OBJECT_NAME":"KUIPER-00222","OBJECT_ID":"2026-030U","EPOCH":"2026-03-03T17:47:56.266080","MEAN_MOTION":15.32313095,"ECCENTRICITY":0.0017603,"INCLINATION":51.8794,"RA_OF_ASC_NODE":248.1907,"ARG_OF_PERICENTER":41.4142,"MEAN_ANOMALY":318.8173,"EPHEMERIS_TYPE":0,"CLASSIFICATION_TYPE":"U","NORAD_CAT_ID":67782,"ELEMENT_SET_NO":999,"REV_AT_EPOCH":417,"BSTAR":0.0022794,"MEAN_MOTION_DOT":0.00072834,"MEAN_MOTION_DDOT":0},{"OBJECT_NAME":"KUIPER-00223","OBJECT_ID":"2026-030V","EPOCH":"2026-03-03T17:28:11.518176","MEAN_MOTION":15.33963691,"ECCENTRICITY":0.0012153,"INCLINATION":51.8814,"RA_OF_ASC_NODE":248.1088,"ARG_OF_PERICENTER":43.6155,"MEAN_ANOMALY":316.5789,"EPHEMERIS_TYPE":0,"CLASSIFICATION_TYPE":"U","NORAD_CAT_ID":67783,"ELEMENT_SET_NO":999,"REV_AT_EPOCH":417,"BSTAR":0.00082604,"MEAN_MOTION_DOT":0.00027332,"MEAN_MOTION_DDOT":0},{"OBJECT_NAME":"KUIPER-00225","OBJECT_ID":"2026-030W","EPOCH":"2026-03-03T16:59:22.483104","MEAN_MOTION":15.35609462,"ECCENTRICITY":0.0003885,"INCLINATION":51.8806,"RA_OF_ASC_NODE":247.9761,"ARG_OF_PERICENTER":24.1858,"MEAN_ANOMALY":335.931,"EPHEMERIS_TYPE":0,"CLASSIFICATION_TYPE":"U","NORAD_CAT_ID":67784,"ELEMENT_SET_NO":999,"REV_AT_EPOCH":417,"BSTAR":0.00082403,"MEAN_MOTION_DOT":0.00028696,"MEAN_MOTION_DDOT":0},{"OBJECT_NAME":"KUIPER-00226","OBJECT_ID":"2026-030X","EPOCH":"2026-03-03T18:02:27.265344","MEAN_MOTION":15.31333072,"ECCENTRICITY":0.00195,"INCLINATION":51.8808,"RA_OF_ASC_NODE":248.2558,"ARG_OF_PERICENTER":55.7907,"MEAN_ANOMALY":304.4922,"EPHEMERIS_TYPE":0,"CLASSIFICATION_TYPE":"U","NORAD_CAT_ID":67785,"ELEMENT_SET_NO":999,"REV_AT_EPOCH":417,"BSTAR":7.0422e-5,"MEAN_MOTION_DOT":1.798e-5,"MEAN_MOTION_DDOT":0},{"OBJECT_NAME":"KUIPER-00259","OBJECT_ID":"2026-030Y","EPOCH":"2026-03-03T18:47:39.071904","MEAN_MOTION":15.34798254,"ECCENTRICITY":0.0008118,"INCLINATION":51.8805,"RA_OF_ASC_NODE":247.7273,"ARG_OF_PERICENTER":32.9113,"MEAN_ANOMALY":327.2376,"EPHEMERIS_TYPE":0,"CLASSIFICATION_TYPE":"U","NORAD_CAT_ID":67786,"ELEMENT_SET_NO":999,"REV_AT_EPOCH":418,"BSTAR":0.0011085,"MEAN_MOTION_DOT":0.00037811,"MEAN_MOTION_DDOT":0},{"OBJECT_NAME":"KUIPER-00260","OBJECT_ID":"2026-030Z","EPOCH":"2026-03-03T16:49:13.947168","MEAN_MOTION":15.36174803,"ECCENTRICITY":8.82e-5,"INCLINATION":51.8794,"RA_OF_ASC_NODE":247.9291,"ARG_OF_PERICENTER":68.9976,"MEAN_ANOMALY":291.1104,"EPHEMERIS_TYPE":0,"CLASSIFICATION_TYPE":"U","NORAD_CAT_ID":67787,"ELEMENT_SET_NO":999,"REV_AT_EPOCH":408,"BSTAR":0.0010606,"MEAN_MOTION_DOT":0.00037768,"MEAN_MOTION_DDOT":0},{"OBJECT_NAME":"KUIPER-00262","OBJECT_ID":"2026-030AA","EPOCH":"2026-03-03T16:44:40.053120","MEAN_MOTION":15.36481139,"ECCENTRICITY":6.08e-5,"INCLINATION":51.8807,"RA_OF_ASC_NODE":247.9114,"ARG_OF_PERICENTER":148.8745,"MEAN_ANOMALY":211.2278,"EPHEMERIS_TYPE":0,"CLASSIFICATION_TYPE":"U","NORAD_CAT_ID":67788,"ELEMENT_SET_NO":999,"REV_AT_EPOCH":417,"BSTAR":0.00085475,"MEAN_MOTION_DOT":0.00030637,"MEAN_MOTION_DDOT":0},{"OBJECT_NAME":"KUIPER-00266","OBJECT_ID":"2026-030AB","EPOCH":"2026-03-03T18:08:30.488352","MEAN_MOTION":15.3097651,"ECCENTRICITY":0.0022352,"INCLINATION":51.8809,"RA_OF_ASC_NODE":248.2805,"ARG_OF_PERICENTER":55.6801,"MEAN_ANOMALY":304.6295,"EPHEMERIS_TYPE":0,"CLASSIFICATION_TYPE":"U","NORAD_CAT_ID":67789,"ELEMENT_SET_NO":999,"REV_AT_EPOCH":417,"BSTAR":0.0002446,"MEAN_MOTION_DOT":7.114e-5,"MEAN_MOTION_DDOT":0}]
